start=new Date('2023-06-23T00:00:00.000Z').valueOf();
sats=[{"SEMIMAJOR_AXIS":"6917.952","CLASSIFICATION_TYPE":"U","REF_FRAME":"TEME","ELEMENT_SET_NO":"999","TLE_LINE1":"1 53281U 22086AR  23173.39106413 -.00000149  00000-0  87318-5 0  9997","DECAY_DATE":null,"RA_OF_ASC_NODE":"314.2446","PERIOD":"95.439","REV_AT_EPOCH":"5137","GP_ID":"234456754","PERIAPSIS":"538.645","COUNTRY_CODE":"US","TIME_SYSTEM":"UTC","MEAN_MOTION_DOT":"-0.00000149","APOAPSIS":"540.989","OBJECT_NAME":"STARLINK-4182","NORAD_CAT_ID":"53281","LAUNCH_DATE":"2022-07-24","OBJECT_TYPE":"PAYLOAD","EPHEMERIS_TYPE":"0","MEAN_MOTION_DDOT":"0.0000000000000","ARG_OF_PERICENTER":"70.5525","MEAN_ELEMENT_THEORY":"SGP4","INCLINATION":"53.2161","BSTAR":"0.00000873180000","RCS_SIZE":"LARGE","FILE":"3939875","ECCENTRICITY":"0.00016940","TLE_LINE2":"2 53281  53.2161 314.2446 0001694  70.5525 289.5650 15.08816493 51373","OBJECT_ID":"2022-086AR","MEAN_MOTION":"15.08816493","SITE":"AFETR","CENTER_NAME":"EARTH","EPOCH":"2023-06-22T09:23:07.940832","MEAN_ANOMALY":"289.5650"},{"CLASSIFICATION_TYPE":"U","TLE_LINE1":"1 53282U 22086AS  23173.79587218  .00000715  00000-0  62961-4 0  9992","DECAY_DATE":null,"ELEMENT_SET_NO":"999","REF_FRAME":"TEME","PERIOD":"95.437","RA_OF_ASC_NODE":"312.4157","SEMIMAJOR_AXIS":"6917.861","LAUNCH_DATE":"2022-07-24","OBJECT_NAME":"STARLINK-4164","NORAD_CAT_ID":"53282","GP_ID":"234463270","REV_AT_EPOCH":"5143","TIME_SYSTEM":"UTC","COUNTRY_CODE":"US","PERIAPSIS":"539.306","MEAN_MOTION_DOT":"0.00000715","APOAPSIS":"540.147","MEAN_ELEMENT_THEORY":"SGP4","BSTAR":"0.00006296100000","INCLINATION":"53.2185","RCS_SIZE":"LARGE","OBJECT_TYPE":"PAYLOAD","EPHEMERIS_TYPE":"0","MEAN_MOTION_DDOT":"0.0000000000000","ARG_OF_PERICENTER":"90.0413","EPOCH":"2023-06-22T19:06:03.356352","CENTER_NAME":"EARTH","MEAN_ANOMALY":"270.0649","TLE_LINE2":"2 53282  53.2185 312.4157 0000608  90.0413 270.0649 15.08846182 51434","ECCENTRICITY":"0.00006080","FILE":"3940134","SITE":"AFETR","MEAN_MOTION":"15.08846182","OBJECT_ID":"2022-086AS"},{"OBJECT_TYPE":"PAYLOAD","EPHEMERIS_TYPE":"0","MEAN_MOTION_DDOT":"0.0000000000000","ARG_OF_PERICENTER":"82.4239","BSTAR":"-0.00002011400000","INCLINATION":"53.2169","MEAN_ELEMENT_THEORY":"SGP4","RCS_SIZE":"LARGE","SITE":"AFETR","MEAN_MOTION":"15.08835322","OBJECT_ID":"2022-086AT","TLE_LINE2":"2 53283  53.2169 314.2512 0001081  82.4239 277.6876 15.08835322 51371","FILE":"3939875","ECCENTRICITY":"0.00010810","EPOCH":"2023-06-22T09:17:51.191520","CENTER_NAME":"EARTH","MEAN_ANOMALY":"277.6876","SEMIMAJOR_AXIS":"6917.895","CLASSIFICATION_TYPE":"U","PERIOD":"95.438","RA_OF_ASC_NODE":"314.2512","DECAY_DATE":null,"TLE_LINE1":"1 53283U 22086AT  23173.38739805 -.00000608  00000-0 -20114-4 0  9996","ELEMENT_SET_NO":"999","REF_FRAME":"TEME","COUNTRY_CODE":"US","TIME_SYSTEM":"UTC","PERIAPSIS":"539.012","GP_ID":"234456748","REV_AT_EPOCH":"5137","APOAPSIS":"540.508","MEAN_MOTION_DOT":"-0.00000608","LAUNCH_DATE":"2022-07-24","NORAD_CAT_ID":"53283","OBJECT_NAME":"STARLINK-4175"},{"LAUNCH_DATE":"2022-07-24","NORAD_CAT_ID":"53284","OBJECT_NAME":"STARLINK-4172","GP_ID":"234463217","REV_AT_EPOCH":"5143","COUNTRY_CODE":"US","TIME_SYSTEM":"UTC","PERIAPSIS":"539.132","MEAN_MOTION_DOT":"0.00000768","APOAPSIS":"540.322","CLASSIFICATION_TYPE":"U","TLE_LINE1":"1 53284U 22086AU  23173.79219061  .00000768  00000-0  66335-4 0  9999","DECAY_DATE":null,"ELEMENT_SET_NO":"999","REF_FRAME":"TEME","PERIOD":"95.437","RA_OF_ASC_NODE":"312.4330","SEMIMAJOR_AXIS":"6917.862","EPOCH":"2023-06-22T19:00:45.268704","CENTER_NAME":"EARTH","MEAN_ANOMALY":"251.7893","TLE_LINE2":"2 53284  53.2176 312.4330 0000860 108.3193 251.7893 15.08845987 51436","ECCENTRICITY":"0.00008600","FILE":"3940160","SITE":"AFETR","MEAN_MOTION":"15.08845987","OBJECT_ID":"2022-086AU","MEAN_ELEMENT_THEORY":"SGP4","BSTAR":"0.00006633500000","INCLINATION":"53.2176","RCS_SIZE":"LARGE","OBJECT_TYPE":"PAYLOAD","EPHEMERIS_TYPE":"0","ARG_OF_PERICENTER":"108.3193","MEAN_MOTION_DDOT":"0.0000000000000"},{"EPOCH":"2023-06-22T09:01:57.427968","CENTER_NAME":"EARTH","MEAN_ANOMALY":"278.9259","SITE":"AFETR","OBJECT_ID":"2022-086AV","MEAN_MOTION":"15.08833599","TLE_LINE2":"2 53285  53.2177 314.2978 0001178  81.1867 278.9259 15.08833599 51371","FILE":"3939876","ECCENTRICITY":"0.00011780","BSTAR":"0.00002958500000","INCLINATION":"53.2177","MEAN_ELEMENT_THEORY":"SGP4","RCS_SIZE":"LARGE","EPHEMERIS_TYPE":"0","OBJECT_TYPE":"PAYLOAD","MEAN_MOTION_DDOT":"0.0000000000000","ARG_OF_PERICENTER":"81.1867","LAUNCH_DATE":"2022-07-24","OBJECT_NAME":"STARLINK-4173","NORAD_CAT_ID":"53285","TIME_SYSTEM":"UTC","COUNTRY_CODE":"US","PERIAPSIS":"538.950","GP_ID":"234457258","REV_AT_EPOCH":"5137","APOAPSIS":"540.580","MEAN_MOTION_DOT":"0.00000183","CLASSIFICATION_TYPE":"U","PERIOD":"95.438","RA_OF_ASC_NODE":"314.2978","TLE_LINE1":"1 53285U 22086AV  23173.37635912  .00000183  00000-0  29585-4 0  9998","DECAY_DATE":null,"ELEMENT_SET_NO":"999","REF_FRAME":"TEME","SEMIMAJOR_AXIS":"6917.900"},{"LAUNCH_DATE":"2022-07-24","OBJECT_NAME":"STARLINK-4165","NORAD_CAT_ID":"53286","MEAN_MOTION_DOT":"0.00000694","APOAPSIS":"540.378","GP_ID":"234456757","REV_AT_EPOCH":"5137","TIME_SYSTEM":"UTC","COUNTRY_CODE":"US","PERIAPSIS":"539.141","TLE_LINE1":"1 53286U 22086AW  23173.38467685  .00000694  00000-0  61672-4 0  9990","DECAY_DATE":null,"ELEMENT_SET_NO":"999","REF_FRAME":"TEME","PERIOD":"95.438","RA_OF_ASC_NODE":"314.2741","CLASSIFICATION_TYPE":"U","SEMIMAJOR_AXIS":"6917.894","MEAN_ANOMALY":"282.5945","EPOCH":"2023-06-22T09:13:56.079840","CENTER_NAME":"EARTH","TLE_LINE2":"2 53286  53.2166 314.2741 0000894  77.5147 282.5945 15.08835411 51370","FILE":"3939876","ECCENTRICITY":"0.00008940","SITE":"AFETR","MEAN_MOTION":"15.08835411","OBJECT_ID":"2022-086AW","RCS_SIZE":"LARGE","MEAN_ELEMENT_THEORY":"SGP4","BSTAR":"0.00006167200000","INCLINATION":"53.2166","ARG_OF_PERICENTER":"77.5147","MEAN_MOTION_DDOT":"0.0000000000000","EPHEMERIS_TYPE":"0","OBJECT_TYPE":"PAYLOAD"},{"PERIAPSIS":"539.147","TIME_SYSTEM":"UTC","COUNTRY_CODE":"US","REV_AT_EPOCH":"5143","GP_ID":"234463231","APOAPSIS":"540.306","MEAN_MOTION_DOT":"0.00001832","OBJECT_NAME":"STARLINK-4107","NORAD_CAT_ID":"53287","LAUNCH_DATE":"2022-07-24","SEMIMAJOR_AXIS":"6917.861","CLASSIFICATION_TYPE":"U","RA_OF_ASC_NODE":"312.5492","PERIOD":"95.437","REF_FRAME":"TEME","ELEMENT_SET_NO":"999","TLE_LINE1":"1 53287U 22086AX  23173.76643241  .00001832  00000-0  13311-3 0  9998","DECAY_DATE":null,"MEAN_MOTION":"15.08846252","OBJECT_ID":"2022-086AX","SITE":"AFETR","FILE":"3940170","ECCENTRICITY":"0.00008380","TLE_LINE2":"2 53287  53.2168 312.5492 0000838  91.9905 268.1183 15.08846252 51433","CENTER_NAME":"EARTH","EPOCH":"2023-06-22T18:23:39.760224","MEAN_ANOMALY":"268.1183","EPHEMERIS_TYPE":"0","OBJECT_TYPE":"PAYLOAD","ARG_OF_PERICENTER":"91.9905","MEAN_MOTION_DDOT":"0.0000000000000","INCLINATION":"53.2168","BSTAR":"0.00013311000000","MEAN_ELEMENT_THEORY":"SGP4","RCS_SIZE":"LARGE"},{"MEAN_ELEMENT_THEORY":"SGP4","INCLINATION":"53.2175","BSTAR":"0.00013833000000","RCS_SIZE":"LARGE","OBJECT_TYPE":"PAYLOAD","EPHEMERIS_TYPE":"0","ARG_OF_PERICENTER":"86.8855","MEAN_MOTION_DDOT":"0.0000000000000","CENTER_NAME":"EARTH","EPOCH":"2023-06-22T18:39:33.432192","MEAN_ANOMALY":"273.2253","ECCENTRICITY":"0.00010140","FILE":"3940170","TLE_LINE2":"2 53288  53.2175 312.5006 0001014  86.8855 273.2253 15.08850489 51439","OBJECT_ID":"2022-086AY","MEAN_MOTION":"15.08850489","SITE":"AFETR","CLASSIFICATION_TYPE":"U","REF_FRAME":"TEME","DECAY_DATE":null,"TLE_LINE1":"1 53288U 22086AY  23173.77747028  .00001915  00000-0  13833-3 0  9999","ELEMENT_SET_NO":"999","RA_OF_ASC_NODE":"312.5006","PERIOD":"95.437","SEMIMAJOR_AXIS":"6917.848","NORAD_CAT_ID":"53288","OBJECT_NAME":"STARLINK-4162","LAUNCH_DATE":"2022-07-24","REV_AT_EPOCH":"5143","GP_ID":"234463699","PERIAPSIS":"539.012","TIME_SYSTEM":"UTC","COUNTRY_CODE":"US","MEAN_MOTION_DOT":"0.00001915","APOAPSIS":"540.415"},{"RA_OF_ASC_NODE":"312.5577","PERIOD":"95.437","REF_FRAME":"TEME","ELEMENT_SET_NO":"999","TLE_LINE1":"1 53289U 22086AZ  23172.68315178  .00000681  00000-0  60860-4 0  9998","DECAY_DATE":null,"CLASSIFICATION_TYPE":"U","SEMIMAJOR_AXIS":"6917.874","OBJECT_NAME":"STARLINK-4176","NORAD_CAT_ID":"53289","LAUNCH_DATE":"2022-07-24","APOAPSIS":"540.515","MEAN_MOTION_DOT":"0.00000681","PERIAPSIS":"538.964","COUNTRY_CODE":"US","TIME_SYSTEM":"UTC","REV_AT_EPOCH":"5149","GP_ID":"234489276","RCS_SIZE":"LARGE","INCLINATION":"53.2187","BSTAR":"0.00006086000000","MEAN_ELEMENT_THEORY":"SGP4","ARG_OF_PERICENTER":"88.4005","MEAN_MOTION_DDOT":"0.0000000000000","OBJECT_TYPE":"PAYLOAD","EPHEMERIS_TYPE":"0","MEAN_ANOMALY":"271.7115","CENTER_NAME":"EARTH","EPOCH":"2023-06-21T16:23:44.313792","OBJECT_ID":"2022-086AZ","MEAN_MOTION":"15.08841981","SITE":"AFETR","FILE":"3940263","ECCENTRICITY":"0.00011210","TLE_LINE2":"2 53289  53.2187 312.5577 0001121  88.4005 271.7115 15.08841981 51493"},{"EPOCH":"2023-06-22T18:28:57.917856","CENTER_NAME":"EARTH","MEAN_ANOMALY":"270.2224","TLE_LINE2":"2 53290  53.2186 312.5314 0000786  89.8858 270.2224 15.08840834 51435","ECCENTRICITY":"0.00007860","FILE":"3940176","SITE":"AFETR","MEAN_MOTION":"15.08840834","OBJECT_ID":"2022-086BA","MEAN_ELEMENT_THEORY":"SGP4","BSTAR":"0.00009277700000","INCLINATION":"53.2186","RCS_SIZE":"LARGE","EPHEMERIS_TYPE":"0","OBJECT_TYPE":"PAYLOAD","MEAN_MOTION_DDOT":"0.0000000000000","ARG_OF_PERICENTER":"89.8858","LAUNCH_DATE":"2022-07-24","OBJECT_NAME":"STARLINK-4149","NORAD_CAT_ID":"53290","GP_ID":"234463768","REV_AT_EPOCH":"5143","TIME_SYSTEM":"UTC","COUNTRY_CODE":"US","PERIAPSIS":"539.199","MEAN_MOTION_DOT":"0.00001189","APOAPSIS":"540.287","CLASSIFICATION_TYPE":"U","TLE_LINE1":"1 53290U 22086BA  23173.77011479  .00001189  00000-0  92777-4 0  9994","DECAY_DATE":null,"ELEMENT_SET_NO":"999","REF_FRAME":"TEME","PERIOD":"95.438","RA_OF_ASC_NODE":"312.5314","SEMIMAJOR_AXIS":"6917.878"}];
